{"type": "FeatureCollection", "features": [ {"type": "Feature", "properties": {"norad_id": 36441, "name": "COSMOS 2251 DEB", "group": "cosmos-2251-debris", "lat": -31.236016754289313, "lon": 169.33131403153018, "alt_km": 604.66947040385, "timestamp": "2025-12-17T19:34:08.435017+00:00", "meta": {"OBJECT_NAME": "COSMOS 2251 DEB", "OBJECT_ID": "1993-036BAQ", "EPOCH": "2025-12-16T05:59:21.003360", "MEAN_MOTION": 15.06817308, "ECCENTRICITY": 0.01083984, "INCLINATION": 73.8346, "RA_OF_ASC_NODE": 342.4539, "ARG_OF_PERICENTER": 80.7132, "MEAN_ANOMALY": 280.6296, "EPHEMERIS_TYPE": 0, "CLASSIFICATION_TYPE": "U", "NORAD_CAT_ID": 36441, "ELEMENT_SET_NO": 999, "REV_AT_EPOCH": 87018, "BSTAR": 0.00033481532, "MEAN_MOTION_DOT": 5.663e-05, "MEAN_MOTION_DDOT": 0}, "tle": {"line1": "1 36441U 93036BAQ 25350.24954865  .00005663  00000+0  33482-3 0  9999", "line2": "2 36441  73.8346 342.4539 0108398  80.7132 280.6296 15.06817308870187"}}, "geometry": {"type": "Point", "coordinates": [169.33131403153018, -31.236016754289313]}}, {"type": "Feature", "properties": {"norad_id": 36442, "name": "COSMOS 2251 DEB", "group": "cosmos-2251-debris", "lat": 70.62571186647605, "lon": 83.3411764181698, "alt_km": 465.5996578455679, "timestamp": "2025-12-17T19:34:08.435027+00:00", "meta": {"OBJECT_NAME": "COSMOS 2251 DEB", "OBJECT_ID": "1993-036BAR", "EPOCH": "2025-12-13T10:09:44.142048", "MEAN_MOTION": 15.30178674, "ECCENTRICITY": 0.00085328, "INCLINATION": 73.9496, "RA_OF_ASC_NODE": 37.7946, "ARG_OF_PERICENTER": 324.6725, "MEAN_ANOMALY": 35.3911, "EPHEMERIS_TYPE": 0, "CLASSIFICATION_TYPE": "U", "NORAD_CAT_ID": 36442, "ELEMENT_SET_NO": 999, "REV_AT_EPOCH": 85926, "BSTAR": 0.0075856442, "MEAN_MOTION_DOT": 0.00228665, "MEAN_MOTION_DDOT": 0}, "tle": {"line1": "1 36442U 93036BAR 25347.42342757  .00228665  00000+0  75856-2 0  9996", "line2": "2 36442  73.9496  37.7946 0008532 324.6725  35.3911 15.30178674859266"}}, "geometry": {"type": "Point", "coordinates": [83.3411764181698, 70.62571186647605]}}, {"type": "Feature", "properties": {"norad_id": 36451, "name": "COSMOS 2251 DEB", "group": "cosmos-2251-debris", "lat": 62.61473945565228, "lon": -0.13043494968383554, "alt_km": 802.1311665818739, "timestamp": "2025-12-17T19:34:08.435036+00:00", "meta": {"OBJECT_NAME": "COSMOS 2251 DEB", "OBJECT_ID": "1993-036BBA", "EPOCH": "2025-12-08T10:10:07.447584", "MEAN_MOTION": 14.18724413, "ECCENTRICITY": 0.01840749, "INCLINATION": 73.9539, "RA_OF_ASC_NODE": 342.9701, "ARG_OF_PERICENTER": 168.3937, "MEAN_ANOMALY": 192.1542, "EPHEMERIS_TYPE": 0, "CLASSIFICATION_TYPE": "U", "NORAD_CAT_ID": 36451, "ELEMENT_SET_NO": 999, "REV_AT_EPOCH": 84164, "BSTAR": 0.0010726423, "MEAN_MOTION_DOT": 2.61e-05, "MEAN_MOTION_DDOT": 0}, "tle": {"line1": "1 36451U 93036BBA 25342.42369731  .00002610  00000+0  10726-2 0  9997", "line2": "2 36451  73.9539 342.9701 0184074 168.3937 192.1542 14.18724413841646"}}, "geometry": {"type": "Point", "coordinates": [-0.13043494968383554, 62.61473945565228]}}, {"type": "Feature", "properties": {"norad_id": 36453, "name": "COSMOS 2251 DEB", "group": "cosmos-2251-debris", "lat": -40.11355278090354, "lon": -23.18826730202451, "alt_km": 773.1458805994471, "timestamp": "2025-12-17T19:34:08.435047+00:00", "meta": {"OBJECT_NAME": "COSMOS 2251 DEB", "OBJECT_ID": "1993-036BBC", "EPOCH": "2025-12-17T04:28:45.600096", "MEAN_MOTION": 14.52638328, "ECCENTRICITY": 0.00704745, "INCLINATION": 73.923, "RA_OF_ASC_NODE": 143.9437, "ARG_OF_PERICENTER": 46.0707, "MEAN_ANOMALY": 129.2609, "EPHEMERIS_TYPE": 0, "CLASSIFICATION_TYPE": "U", "NORAD_CAT_ID": 36453, "ELEMENT_SET_NO": 999, "REV_AT_EPOCH": 84532, "BSTAR": 0.00065431102, "MEAN_MOTION_DOT": 2.739e-05, "MEAN_MOTION_DDOT": 0}, "tle": {"line1": "1 36453U 93036BBC 25351.18663889  .00002739  00000+0  65431-3 0  9999", "line2": "2 36453  73.9230 143.9437 0070474  46.0707 129.2609 14.52638328845327"}}, "geometry": {"type": "Point", "coordinates": [-23.18826730202451, -40.11355278090354]}}, {"type": "Feature", "properties": {"norad_id": 36459, "name": "COSMOS 2251 DEB", "group": "cosmos-2251-debris", "lat": 19.89885505237331, "lon": -3.4284620135715644, "alt_km": 767.2108676012076, "timestamp": "2025-12-17T19:34:08.435056+00:00", "meta": {"OBJECT_NAME": "COSMOS 2251 DEB", "OBJECT_ID": "1993-036BBJ", "EPOCH": "2025-12-15T06:52:40.994112", "MEAN_MOTION": 14.2642949, "ECCENTRICITY": 0.01133967, "INCLINATION": 74.0484, "RA_OF_ASC_NODE": 355.1955, "ARG_OF_PERICENTER": 90.2624, "MEAN_ANOMALY": 271.1518, "EPHEMERIS_TYPE": 0, "CLASSIFICATION_TYPE": "U", "NORAD_CAT_ID": 36459, "ELEMENT_SET_NO": 999, "REV_AT_EPOCH": 7918, "BSTAR": 0.0010918207, "MEAN_MOTION_DOT": 2.788e-05, "MEAN_MOTION_DDOT": 0}, "tle": {"line1": "1 36459U 93036BBJ 25349.28658558  .00002788  00000+0  10918-2 0  9993", "line2": "2 36459  74.0484 355.1955 0113396  90.2624 271.1518 14.26429490 79186"}}, "geometry": {"type": "Point", "coordinates": [-3.4284620135715644, 19.89885505237331]}}, {"type": "Feature", "properties": {"norad_id": 36470, "name": "COSMOS 2251 DEB", "group": "cosmos-2251-debris", "lat": 67.55070231332931, "lon": 19.294210375028143, "alt_km": 523.400355077828, "timestamp": "2025-12-17T19:34:08.435066+00:00", "meta": {"OBJECT_NAME": "COSMOS 2251 DEB", "OBJECT_ID": "1993-036BBV", "EPOCH": "2025-12-15T00:13:00.014016", "MEAN_MOTION": 15.07582269, "ECCENTRICITY": 0.00222568, "INCLINATION": 73.8449, "RA_OF_ASC_NODE": 249.6845, "ARG_OF_PERICENTER": 78.1368, "MEAN_ANOMALY": 282.2316, "EPHEMERIS_TYPE": 0, "CLASSIFICATION_TYPE": "U", "NORAD_CAT_ID": 36470, "ELEMENT_SET_NO": 999, "REV_AT_EPOCH": 66128, "BSTAR": 0.0018721064, "MEAN_MOTION_DOT": 0.0002872, "MEAN_MOTION_DDOT": 0}, "tle": {"line1": "1 36470U 93036BBV 25349.00902794  .00028720  00000+0  18721-2 0  9994", "line2": "2 36470  73.8449 249.6845 0022256  78.1368 282.2316 15.07582269661287"}}, "geometry": {"type": "Point", "coordinates": [19.294210375028143, 67.55070231332931]}}, {"type": "Feature", "properties": {"norad_id": 36528, "name": "COSMOS 2251 DEB", "group": "cosmos-2251-debris", "lat": -31.798810986932047, "lon": -33.792715511443255, "alt_km": 741.7928327768277, "timestamp": "2025-12-17T19:34:08.435076+00:00", "meta": {"OBJECT_NAME": "COSMOS 2251 DEB", "OBJECT_ID": "1993-036BCN", "EPOCH": "2025-12-14T16:44:10.040352", "MEAN_MOTION": 14.30658136, "ECCENTRICITY": 0.00847741, "INCLINATION": 74.0159, "RA_OF_ASC_NODE": 141.651, "ARG_OF_PERICENTER": 190.7529, "MEAN_ANOMALY": 169.1813, "EPHEMERIS_TYPE": 0, "CLASSIFICATION_TYPE": "U", "NORAD_CAT_ID": 36528, "ELEMENT_SET_NO": 999, "REV_AT_EPOCH": 64455, "BSTAR": 0.0012089622, "MEAN_MOTION_DOT": 3.261e-05, "MEAN_MOTION_DDOT": 0}, "tle": {"line1": "1 36528U 93036BCN 25348.69733843  .00003261  00000+0  12090-2 0  9995", "line2": "2 36528  74.0159 141.6510 0084774 190.7529 169.1813 14.30658136644553"}}, "geometry": {"type": "Point", "coordinates": [-33.792715511443255, -31.798810986932047]}}, {"type": "Feature", "properties": {"norad_id": 36533, "name": "COSMOS 2251 DEB", "group": "cosmos-2251-debris", "lat": 0.8496737619849651, "lon": 105.52859901692892, "alt_km": 739.08708561606, "timestamp": "2025-12-17T19:34:08.435085+00:00", "meta": {"OBJECT_NAME": "COSMOS 2251 DEB", "OBJECT_ID": "1993-036BCT", "EPOCH": "2025-12-16T02:09:50.256000", "MEAN_MOTION": 14.4982965, "ECCENTRICITY": 0.00492471, "INCLINATION": 74.0118, "RA_OF_ASC_NODE": 108.5273, "ARG_OF_PERICENTER": 257.1253, "MEAN_ANOMALY": 102.4403, "EPHEMERIS_TYPE": 0, "CLASSIFICATION_TYPE": "U", "NORAD_CAT_ID": 36533, "ELEMENT_SET_NO": 999, "REV_AT_EPOCH": 84533, "BSTAR": 0.00039238166, "MEAN_MOTION_DOT": 1.509e-05, "MEAN_MOTION_DDOT": 0}, "tle": {"line1": "1 36533U 93036BCT 25350.09016500  .00001509  00000+0  39238-3 0  9999", "line2": "2 36533  74.0118 108.5273 0049247 257.1253 102.4403 14.49829650845335"}}, "geometry": {"type": "Point", "coordinates": [105.52859901692892, 0.8496737619849651]}}, {"type": "Feature", "properties": {"norad_id": 36539, "name": "COSMOS 2251 DEB", "group": "cosmos-2251-debris", "lat": 14.353001440480822, "lon": 49.70201422451908, "alt_km": 714.8844979069454, "timestamp": "2025-12-17T19:34:08.435095+00:00", "meta": {"OBJECT_NAME": "COSMOS 2251 DEB", "OBJECT_ID": "1993-036BCZ", "EPOCH": "2025-12-17T06:20:17.673216", "MEAN_MOTION": 14.59330718, "ECCENTRICITY": 0.0026917, "INCLINATION": 74.024, "RA_OF_ASC_NODE": 46.5493, "ARG_OF_PERICENTER": 191.0322, "MEAN_ANOMALY": 169.0257, "EPHEMERIS_TYPE": 0, "CLASSIFICATION_TYPE": "U", "NORAD_CAT_ID": 36539, "ELEMENT_SET_NO": 999, "REV_AT_EPOCH": 84013, "BSTAR": 0.00048071955, "MEAN_MOTION_DOT": 2.255e-05, "MEAN_MOTION_DDOT": 0}, "tle": {"line1": "1 36539U 93036BCZ 25351.26409344  .00002255  00000+0  48072-3 0  9992", "line2": "2 36539  74.0240  46.5493 0026917 191.0322 169.0257 14.59330718840136"}}, "geometry": {"type": "Point", "coordinates": [49.70201422451908, 14.353001440480822]}}, {"type": "Feature", "properties": {"norad_id": 36540, "name": "COSMOS 2251 DEB", "group": "cosmos-2251-debris", "lat": -36.099671074460744, "lon": 158.79551312991032, "alt_km": 702.3520500896793, "timestamp": "2025-12-17T19:34:08.435105+00:00", "meta": {"OBJECT_NAME": "COSMOS 2251 DEB", "OBJECT_ID": "1993-036BDA", "EPOCH": "2025-12-16T22:20:30.366528", "MEAN_MOTION": 14.58522153, "ECCENTRICITY": 0.00148233, "INCLINATION": 74.0279, "RA_OF_ASC_NODE": 172.5343, "ARG_OF_PERICENTER": 242.5777, "MEAN_ANOMALY": 117.3881, "EPHEMERIS_TYPE": 0, "CLASSIFICATION_TYPE": "U", "NORAD_CAT_ID": 36540, "ELEMENT_SET_NO": 999, "REV_AT_EPOCH": 86071, "BSTAR": 0.00085899998, "MEAN_MOTION_DOT": 3.97e-05, "MEAN_MOTION_DDOT": 0}, "tle": {"line1": "1 36540U 93036BDA 25350.93090702  .00003970  00000+0  85900-3 0  9997", "line2": "2 36540  74.0279 172.5343 0014823 242.5777 117.3881 14.58522153860713"}}, "geometry": {"type": "Point", "coordinates": [158.79551312991032, -36.099671074460744]}}]}